{
    "links": {
        "self": "http://www.neowsapp.com/rest/v1/neo/3648729?api_key=iIulBulltgU6a56xZRHN4H3l9WmuAYTsLGpBGhQ2"
    },
    "id": "3648729",
    "neo_reference_id": "3648729",
    "name": "(2013 SX24)",
    "designation": "2013 SX24",
    "nasa_jpl_url": "http://ssd.jpl.nasa.gov/sbdb.cgi?sstr=3648729",
    "absolute_magnitude_h": 23.5,
    "estimated_diameter": {
        "kilometers": {
            "estimated_diameter_min": 0.0530340723,
            "estimated_diameter_max": 0.1185877909
        },
        "meters": {
            "estimated_diameter_min": 53.0340723319,
            "estimated_diameter_max": 118.5877908577
        },
        "miles": {
            "estimated_diameter_min": 0.0329538346,
            "estimated_diameter_max": 0.0736870142
        },
        "feet": {
            "estimated_diameter_min": 173.9963058693,
            "estimated_diameter_max": 389.0675677576
        }
    },
    "is_potentially_hazardous_asteroid": false,
    "close_approach_data": [
        {
            "close_approach_date": "2013-09-23",
            "close_approach_date_full": "2013-Sep-23 22:49",
            "epoch_date_close_approach": 1379976540000,
            "relative_velocity": {
                "kilometers_per_second": "9.4936707856",
                "kilometers_per_hour": "34177.2148280029",
                "miles_per_hour": "21236.392180211"
            },
            "miss_distance": {
                "astronomical": "0.0876849449",
                "lunar": "34.1094435661",
                "kilometers": "13117480.988107363",
                "miles": "8150824.7272450894"
            },
            "orbiting_body": "Earth"
        },
        {
            "close_approach_date": "2027-10-10",
            "close_approach_date_full": "2027-Oct-10 02:32",
            "epoch_date_close_approach": 1823135520000,
            "relative_velocity": {
                "kilometers_per_second": "14.5592286875",
                "kilometers_per_hour": "52413.2232749201",
                "miles_per_hour": "32567.5386510191"
            },
            "miss_distance": {
                "astronomical": "0.2395257247",
                "lunar": "93.1755069083",
                "kilometers": "35832538.225326389",
                "miles": "22265306.7972226082"
            },
            "orbiting_body": "Earth"
        },
        {
            "close_approach_date": "2041-10-22",
            "close_approach_date_full": "2041-Oct-22 06:36",
            "epoch_date_close_approach": 2266036560000,
            "relative_velocity": {
                "kilometers_per_second": "21.1412934931",
                "kilometers_per_hour": "76108.6565750966",
                "miles_per_hour": "47290.959414676"
            },
            "miss_distance": {
                "astronomical": "0.4887533836",
                "lunar": "190.1250662204",
                "kilometers": "73116465.141852932",
                "miles": "45432464.7077651816"
            },
            "orbiting_body": "Earth"
        }
    ],
    "orbital_data": {
        "orbit_id": "14",
        "orbit_determination_date": "2017-04-06 08:44:29",
        "first_observation_date": "2013-09-30",
        "last_observation_date": "2013-11-03",
        "data_arc_in_days": 34,
        "observations_used": 60,
        "orbit_uncertainty": "7",
        "minimum_orbit_intersection": ".0863951",
        "jupiter_tisserand_invariant": "3.680",
        "epoch_osculation": "2459000.5",
        "eccentricity": ".4731743695453171",
        "semi_major_axis": "1.989873347905272",
        "inclination": "12.25732636751584",
        "ascending_node_longitude": "13.43498366006539",
        "orbital_period": "1025.266057008819",
        "perihelion_distance": "1.048316281035165",
        "perihelion_argument": "325.006651465212",
        "aphelion_distance": "2.931430414775379",
        "perihelion_time": "2458590.126239044319",
        "mean_anomaly": "144.0938700097575",
        "mean_motion": ".3511283705717214",
        "equinox": "J2000",
        "orbit_class": {
            "orbit_class_type": "AMO",
            "orbit_class_description": "Near-Earth asteroid orbits similar to that of 1221 Amor",
            "orbit_class_range": "1.017 AU < q (perihelion) < 1.3 AU"
        }
    },
    "is_sentry_object": false
}